COSMOS 2251 DEB         
1 38219U 93036BTK 17341.74026943  .00011111  00000-0  68458-3 0  9994
2 38219  73.6489 119.0197 0037877 306.6428 114.7897 15.09442210439697
